{
  "type": "FeatureCollection",
  "features": [
    {
      "type": "Feature",
      "properties": {
        "norad_id": 34003,
        "name": "COSMOS 2251 DEB",
        "group": "cosmos-2251-debris",
        "lat": -23.07515734158642,
        "lon": -105.662459868028,
        "alt_km": 785.1326025352582,
        "timestamp": "2025-12-26T21:25:53.402815+00:00",
        "meta_object_name": "COSMOS 2251 DEB",
        "meta_object_id": "1993-036GN",
        "meta_epoch": "2025-12-25T19:31:29.334144",
        "meta_mean_motion": 13.84221361,
        "meta_eccentricity": 0.02753646,
        "meta_inclination": 74.0775,
        "meta_ra_of_asc_node": 263.1391,
        "meta_arg_of_pericenter": 12.2095,
        "meta_mean_anomaly": 348.5523,
        "meta_ephemeris_type": 0,
        "meta_classification_type": "U",
        "meta_norad_cat_id": 34003,
        "meta_element_set_no": 999,
        "meta_rev_at_epoch": 84606,
        "meta_bstar": 0.00186549,
        "meta_mean_motion_dot": 2.77e-05,
        "meta_mean_motion_ddot": 0,
        "tle_line1": "1 34003U 93036GN  25359.81353396  .00002770  00000+0  18655-2 0  9995",
        "tle_line2": "2 34003  74.0775 263.1391 0275364  12.2095 348.5523 13.84221361846068"
      },
      "geometry": {
        "type": "Point",
        "coordinates": [
          -105.662459868028,
          -23.07515734158642
        ]
      }
    },
    {
      "type": "Feature",
      "properties": {
        "norad_id": 34004,
        "name": "COSMOS 2251 DEB",
        "group": "cosmos-2251-debris",
        "lat": 37.86753809013754,
        "lon": -60.569157693766094,
        "alt_km": 730.5492608406885,
        "timestamp": "2025-12-26T21:25:53.402825+00:00",
        "meta_object_name": "COSMOS 2251 DEB",
        "meta_object_id": "1993-036GP",
        "meta_epoch": "2025-12-26T04:40:50.973024",
        "meta_mean_motion": 14.49129274,
        "meta_eccentricity": 0.00334201,
        "meta_inclination": 74.0356,
        "meta_ra_of_asc_node": 287.8781,
        "meta_arg_of_pericenter": 298.3936,
        "meta_mean_anomaly": 61.3856,
        "meta_ephemeris_type": 0,
        "meta_classification_type": "U",
        "meta_norad_cat_id": 34004,
        "meta_element_set_no": 999,
        "meta_rev_at_epoch": 88225,
        "meta_bstar": 0.0012566003,
        "meta_mean_motion_dot": 4.787e-05,
        "meta_mean_motion_ddot": 0,
        "tle_line1": "1 34004U 93036GP  25360.19503441  .00004787  00000+0  12566-2 0  9992",
        "tle_line2": "2 34004  74.0356 287.8781 0033420 298.3936  61.3856 14.49129274882258"
      },
      "geometry": {
        "type": "Point",
        "coordinates": [
          -60.569157693766094,
          37.86753809013754
        ]
      }
    },
    {
      "type": "Feature",
      "properties": {
        "norad_id": 34005,
        "name": "COSMOS 2251 DEB",
        "group": "cosmos-2251-debris",
        "lat": -44.51230446459652,
        "lon": 23.834933734875257,
        "alt_km": 760.2695460036639,
        "timestamp": "2025-12-26T21:25:53.402836+00:00",
        "meta_object_name": "COSMOS 2251 DEB",
        "meta_object_id": "1993-036GQ",
        "meta_epoch": "2025-12-26T13:58:14.807712",
        "meta_mean_motion": 14.40313944,
        "meta_eccentricity": 0.00212459,
        "meta_inclination": 74.0432,
        "meta_ra_of_asc_node": 188.0722,
        "meta_arg_of_pericenter": 304.0017,
        "meta_mean_anomaly": 111.753,
        "meta_ephemeris_type": 0,
        "meta_classification_type": "U",
        "meta_norad_cat_id": 34005,
        "meta_element_set_no": 999,
        "meta_rev_at_epoch": 88578,
        "meta_bstar": 0.00011310078,
        "meta_mean_motion_dot": 3.33e-06,
        "meta_mean_motion_ddot": 0,
        "tle_line1": "1 34005U 93036GQ  25360.58211583  .00000333  00000+0  11310-3 0  9999",
        "tle_line2": "2 34005  74.0432 188.0722 0021245 304.0017 111.7530 14.40313944885788"
      },
      "geometry": {
        "type": "Point",
        "coordinates": [
          23.834933734875257,
          -44.51230446459652
        ]
      }
    },
    {
      "type": "Feature",
      "properties": {
        "norad_id": 34006,
        "name": "COSMOS 2251 DEB",
        "group": "cosmos-2251-debris",
        "lat": 45.17092481783728,
        "lon": 131.48219737145155,
        "alt_km": 567.7326134816985,
        "timestamp": "2025-12-26T21:25:53.402846+00:00",
        "meta_object_name": "COSMOS 2251 DEB",
        "meta_object_id": "1993-036GR",
        "meta_epoch": "2025-12-25T18:35:55.863168",
        "meta_mean_motion": 14.95648156,
        "meta_eccentricity": 0.00117121,
        "meta_inclination": 74.0532,
        "meta_ra_of_asc_node": 117.0187,
        "meta_arg_of_pericenter": 46.7358,
        "meta_mean_anomaly": 103.407,
        "meta_ephemeris_type": 0,
        "meta_classification_type": "U",
        "meta_norad_cat_id": 34006,
        "meta_element_set_no": 999,
        "meta_rev_at_epoch": 88863,
        "meta_bstar": 0.0036326632,
        "meta_mean_motion_dot": 0.00040646,
        "meta_mean_motion_ddot": 0,
        "tle_line1": "1 34006U 93036GR  25359.77495212  .00040646  00000+0  36327-2 0  9997",
        "tle_line2": "2 34006  74.0532 117.0187 0011712  46.7358 103.4070 14.95648156888633"
      },
      "geometry": {
        "type": "Point",
        "coordinates": [
          131.48219737145155,
          45.17092481783728
        ]
      }
    },
    {
      "type": "Feature",
      "properties": {
        "norad_id": 34007,
        "name": "COSMOS 2251 DEB",
        "group": "cosmos-2251-debris",
        "lat": -55.067444968316174,
        "lon": 163.87262640341316,
        "alt_km": 710.6846601292227,
        "timestamp": "2025-12-26T21:25:53.402855+00:00",
        "meta_object_name": "COSMOS 2251 DEB",
        "meta_object_id": "1993-036GS",
        "meta_epoch": "2025-12-26T05:35:55.099104",
        "meta_mean_motion": 14.64882321,
        "meta_eccentricity": 0.00442577,
        "meta_inclination": 74.0197,
        "meta_ra_of_asc_node": 320.9195,
        "meta_arg_of_pericenter": 91.4788,
        "meta_mean_anomaly": 269.1451,
        "meta_ephemeris_type": 0,
        "meta_classification_type": "U",
        "meta_norad_cat_id": 34007,
        "meta_element_set_no": 999,
        "meta_rev_at_epoch": 89277,
        "meta_bstar": 0.00080446466,
        "meta_mean_motion_dot": 4.333e-05,
        "meta_mean_motion_ddot": 0,
        "tle_line1": "1 34007U 93036GS  25360.23327661  .00004333  00000+0  80446-3 0  9998",
        "tle_line2": "2 34007  74.0197 320.9195 0044257  91.4788 269.1451 14.64882321892772"
      },
      "geometry": {
        "type": "Point",
        "coordinates": [
          163.87262640341316,
          -55.067444968316174
        ]
      }
    },
    {
      "type": "Feature",
      "properties": {
        "norad_id": 34008,
        "name": "COSMOS 2251 DEB",
        "group": "cosmos-2251-debris",
        "lat": 47.940268262523496,
        "lon": 106.15435307320517,
        "alt_km": 793.8610342014117,
        "timestamp": "2025-12-26T21:25:53.402866+00:00",
        "meta_object_name": "COSMOS 2251 DEB",
        "meta_object_id": "1993-036GT",
        "meta_epoch": "2025-12-26T14:56:20.524992",
        "meta_mean_motion": 14.33155789,
        "meta_eccentricity": 0.00246791,
        "meta_inclination": 74.035,
        "meta_ra_of_asc_node": 305.1463,
        "meta_arg_of_pericenter": 298.1813,
        "meta_mean_anomaly": 236.1032,
        "meta_ephemeris_type": 0,
        "meta_classification_type": "U",
        "meta_norad_cat_id": 34008,
        "meta_element_set_no": 999,
        "meta_rev_at_epoch": 88163,
        "meta_bstar": 0.00013540456,
        "meta_mean_motion_dot": 3.47e-06,
        "meta_mean_motion_ddot": 0,
        "tle_line1": "1 34008U 93036GT  25360.62245978  .00000347  00000+0  13540-3 0  9994",
        "tle_line2": "2 34008  74.0350 305.1463 0024679 298.1813 236.1032 14.33155789881637"
      },
      "geometry": {
        "type": "Point",
        "coordinates": [
          106.15435307320517,
          47.940268262523496
        ]
      }
    },
    {
      "type": "Feature",
      "properties": {
        "norad_id": 34009,
        "name": "COSMOS 2251 DEB",
        "group": "cosmos-2251-debris",
        "lat": 10.053321850247194,
        "lon": 128.1633139179629,
        "alt_km": 799.3502747037182,
        "timestamp": "2025-12-26T21:25:53.402876+00:00",
        "meta_object_name": "COSMOS 2251 DEB",
        "meta_object_id": "1993-036GU",
        "meta_epoch": "2025-12-26T07:48:31.777920",
        "meta_mean_motion": 14.33233263,
        "meta_eccentricity": 0.00270465,
        "meta_inclination": 74.0378,
        "meta_ra_of_asc_node": 312.1087,
        "meta_arg_of_pericenter": 17.8871,
        "meta_mean_anomaly": 103.9021,
        "meta_ephemeris_type": 0,
        "meta_classification_type": "U",
        "meta_norad_cat_id": 34009,
        "meta_element_set_no": 999,
        "meta_rev_at_epoch": 88140,
        "meta_bstar": 0.00016577437,
        "meta_mean_motion_dot": 4.32e-06,
        "meta_mean_motion_ddot": 0,
        "tle_line1": "1 34009U 93036GU  25360.32536780  .00000432  00000+0  16577-3 0  9994",
        "tle_line2": "2 34009  74.0378 312.1087 0027046  17.8871 103.9021 14.33233263881407"
      },
      "geometry": {
        "type": "Point",
        "coordinates": [
          128.1633139179629,
          10.053321850247194
        ]
      }
    }
  ]
}